ORBCOMM-X               
1 21576U 91050C   25249.14273588  .00000511  00000+0  16430-3 0  9999
2 21576  98.3367 314.0683 0002597 315.0213  45.0767 14.43318615793792
ORBCOMM FM01            
1 23545U 95017A   25249.27196212  .00009976  00000+0  10160-2 0  9993
2 23545  69.9610 231.8199 0004925 232.4282 127.6426 14.90939613624597
ORBCOMM FM02            
1 23546U 95017B   25249.29723371  .00012710  00000+0  12570-2 0  9995
2 23546  69.9623 250.8628 0005966 226.2107 133.8556 14.92019285624255
ORBCOMM FM08            
1 25112U 97084A   25249.22662884  .00002385  00000+0  70227-3 0  9997
2 25112  45.0147 338.7760 0007302 282.7342  77.2693 14.46056417453103
ORBCOMM FM10            
1 25113U 97084B   25249.28899468  .00002435  00000+0  71940-3 0  9993
2 25113  45.0161 341.0015 0006540 253.2763 106.7371 14.45833772628250
ORBCOMM FM11            
1 25114U 97084C   25249.23852072  .00002345  00000+0  69791-3 0  9990
2 25114  45.0146 342.0243 0007282 255.2704 104.7341 14.45582274453203
ORBCOMM FM12            
1 25115U 97084D   25248.99251650  .00002146  00000+0  64198-3 0  9993
2 25115  45.0156 342.9466 0006417 250.4730 109.5428 14.45598036452960
ORBCOMM FM09            
1 25116U 97084E   25248.96281002  .00002054  00000+0  61783-3 0  9990
2 25116  45.0159 344.1037 0007743 244.0540 115.9513 14.45464716453169
